TJS-7                   
1 49115U 21077A   26177.64592111 -.00000113  00000+0  00000+0 0  9993
2 49115   0.3304 264.8356 0003638 118.6400  24.3738  1.00276149  9642
CHINASAT 9B             
1 49125U 21080A   26177.89953949 -.00000301  00000+0  00000+0 0  9994
2 49125   0.0148 291.5404 0002443 182.9183 225.8022  1.00271233 17745
SHIJIAN-21 (SJ-21)      
1 49330U 21094A   26177.95376341 -.00000341  00000+0  00000+0 0  9993
2 49330   5.1356  61.1276 0049532 168.0512 157.1808  1.00266807  5454
SES-17                  
1 49332U 21095A   26176.95253112 -.00000261  00000+0  00000+0 0  9996
2 49332   0.0241  40.4215 0001169  51.8184  97.6590  1.00270262 17947
SYRACUSE 4A             
1 49333U 21095B   26177.95983146  .00000000  00000+0  00000+0 0  9995
2 49333   0.0280  20.6646 0001508  66.9331 218.5273  1.00269950 18043
QZS-1R (MICHIBIKI-1R)   
1 49336U 21096A   26177.61891060 -.00000312  00000+0  00000+0 0  9992
2 49336  37.4804  79.4425 0755635 271.9684 279.4688  1.00253032 17101
ZHONGXING-1D            
1 49505U 21114A   26177.90525953 -.00000324  00000+0  00000+0 0  9991
2 49505   0.0440 167.8706 0000344 355.9552 207.2760  1.00272405 16915
STPSAT-6                
1 49817U 21118A   26177.64349443 -.00000034  00000+0  00000+0 0  9998
2 49817   0.3452  85.3394 0001072 271.2626  38.1316  1.00270723 16666
EXPRESS AMU-7           
1 50001U 21123A   26177.97950488 -.00000231  00000+0  00000+0 0  9993
2 50001   0.0156 320.1119 0000266  69.8842  22.7263  1.00271844 16633
EXPRESS AMU-3           
1 50002U 21123B   26176.95283108  .00000000  00000+0  00000+0 0  9992
2 50002   0.0216 329.0934 0000317 357.0236  33.8810  1.00270643  7121
TIANLIAN 2-02           
1 50005U 21124A   26177.91340623 -.00000003  00000+0  00000+0 0  9993
2 50005   0.8271  85.9915 0000884 191.9216 136.9087  1.00272607 16710
TURKSAT 5B              
1 50212U 21126A   26177.24623458  .00000157  00000+0  00000+0 0  9990
2 50212   0.0679 342.1014 0003358  19.8496  43.0524  1.00268047 16389
INMARSAT 6-F1           
1 50319U 21128A   26177.82484706 -.00000160  00000+0  00000+0 0  9990
2 50319   0.0177 331.9548 0000325 145.5284 178.1652  1.00271763 16359
SHIYAN-12 01 (SY-12 01) 
1 50321U 21129A   26177.67598690  .00000132  00000+0  00000+0 0  9993
2 50321   3.6986  79.7881 0003180 294.2392 196.3577  1.00043795 16596
SHIYAN-12 02 (SY-12 02) 
1 50322U 21129B   26177.72613979 -.00000304  00000+0  00000+0 0  9990
2 50322   3.6982  79.7912 0003081  56.6569 136.1595  1.00487205 16594
TJS-9                   
1 50574U 21135A   26177.90664619 -.00000287  00000+0  00000+0 0  9993
2 50574   0.0316 204.9564 0003858 214.2003 319.4974  1.00271765 16529
USA 324                 
1 51280U 22006A   26157.08795008 -.00000058  00000+0  00000+0 0  9996
2 51280   0.7690  83.2777 0002840 165.6787 110.1567  1.00289779 16021
GOES 18                 
1 51850U 22021A   26177.92354627  .00000108  00000+0  00000+0 0  9994
2 51850   0.0075  87.6581 0000646  38.4096 344.4465  1.00273321  6694
ZHONGXING-6D            
1 52255U 22038A   26177.88873226 -.00000342  00000+0  00000+0 0  9999
2 52255   0.0084  51.9368 0000236 142.0287 166.0300  1.00274580 15515
NILESAT 301             
1 52817U 22061A   26177.94939017 -.00000046  00000+0  00000+0 0  9998
2 52817   0.0447 353.3594 0004885  66.8130 189.6723  1.00272801 14834
CMS-02 (GSAT-24)        
1 52903U 22067A   26177.89598615 -.00000153  00000+0  00000+0 0  9998
2 52903   0.0380 253.2448 0001627 127.1251 300.2122  1.00271627 14703
MEASAT 3D               
1 52904U 22067B   26177.89763281 -.00000230  00000+0  00000+0 0  9998
2 52904   0.0432 311.2499 0000768 102.1958 276.2286  1.00272077 14742
SES-22                  
1 52933U 22071A   26177.70936885  .00000116  00000+0  00000+0 0  9999
2 52933   0.0122 313.3627 0001322 129.3858 308.4500  1.00270363  7614
WFOV (USA 332)          
1 52940U 22073A   26177.76049400 -.00000354  00000+0  00000+0 0  9998
2 52940   3.7351  78.4130 0001758 261.7110 327.8097  1.00270865 14463
TIANLIAN 2-03           
1 53100U 22078A   26177.81032355  .00000082  00000+0  00000+0 0  9996
2 53100   0.6951  77.2105 0001093 338.9154 161.0745  1.00271245 14641
SBIRS GEO-6 (USA 336)   
1 53355U 22092A   26177.97829154 -.00000277  00000+0  00000+0 0  9999
2 53355   3.2410 317.6545 0002185 130.8635 317.7668  1.00271850 14339
EUTELSAT KONNECT VHTS   
1 53765U 22110A   26176.95324020  .00000025  00000+0  00000+0 0  9994
2 53765   0.0630 100.1875 0002520   5.5045 154.2631  1.00257067  6924
ZHONGXING-1E            
1 53813U 22112A   26177.89563948 -.00000138  00000+0  00000+0 0  9994
2 53813   0.0087 130.1528 0000229 202.1442 346.5657  1.00272065 13941
SES-20                  
1 53960U 22123A   26175.19760890 -.00000093  00000+0  00000+0 0  9995
2 53960   0.0251  65.9784 0002053  31.5385 142.8634  1.00269292 13606
SES-21                  
1 53961U 22123B   26174.43155243  .00000000  00000+0  00000+0 0  9999
2 53961   0.0387  19.7009 0001007  64.8583 211.4828  1.00271938  7275
GALAXY 33 (G-33)        
1 54026U 22128A   26177.71059981  .00000090  00000+0  00000+0 0  9992
2 54026   0.0120  12.4122 0002057  77.3931 307.8406  1.00271514 13832
