OBJECT_NAME,OBJECT_ID,EPOCH,MEAN_MOTION,ECCENTRICITY,INCLINATION,RA_OF_ASC_NODE,ARG_OF_PERICENTER,MEAN_ANOMALY,EPHEMERIS_TYPE,CLASSIFICATION_TYPE,NORAD_CAT_ID,ELEMENT_SET_NO,REV_AT_EPOCH,BSTAR,MEAN_MOTION_DOT,MEAN_MOTION_DDOT
TJS-7,2021-077A,2026-06-26T15:30:07.583904,1.00276149,.00036384,0.3304,264.8356,118.6400,24.3738,0,U,49115,999,964,0,-.113E-5,0
CHINASAT 9B,2021-080A,2026-06-26T21:35:20.211936,1.00271233,.00024434,0.0148,291.5404,182.9183,225.8022,0,U,49125,999,1774,0,-.301E-5,0
SHIJIAN-21 (SJ-21),2021-094A,2026-06-26T22:53:25.158624,1.00266807,.00495323,5.1356,61.1276,168.0512,157.1808,0,U,49330,999,545,0,-.341E-5,0
SES-17,2021-095A,2026-06-25T22:51:38.688768,1.00270262,.00011696,0.0241,40.4215,51.8184,97.6590,0,U,49332,999,1794,0,-.261E-5,0
SYRACUSE 4A,2021-095B,2026-06-26T23:02:09.438144,1.00269950,.00015084,0.0280,20.6646,66.9331,218.5273,0,U,49333,999,1804,0,0,0
QZS-1R (MICHIBIKI-1R),2021-096A,2026-06-26T14:51:13.875840,1.00253032,.0755635,37.4804,79.4425,271.9684,279.4688,0,U,49336,999,1710,0,-.312E-5,0
ZHONGXING-1D,2021-114A,2026-06-26T21:43:34.423392,1.00272405,.00003447,0.0440,167.8706,355.9552,207.2760,0,U,49505,999,1691,0,-.324E-5,0
STPSAT-6,2021-118A,2026-06-26T15:26:37.918752,1.00270723,.00010721,0.3452,85.3394,271.2626,38.1316,0,U,49817,999,1666,0,-.34E-6,0
EXPRESS AMU-7,2021-123A,2026-06-26T23:30:29.221632,1.00271844,.00002666,0.0156,320.1119,69.8842,22.7263,0,U,50001,999,1663,0,-.231E-5,0
EXPRESS AMU-3,2021-123B,2026-06-25T22:52:04.605312,1.00270643,.0000317,0.0216,329.0934,357.0236,33.8810,0,U,50002,999,712,0,0,0
TIANLIAN 2-02,2021-124A,2026-06-26T21:55:18.298272,1.00272607,.00008846,0.8271,85.9915,191.9216,136.9087,0,U,50005,999,1671,0,-.3E-7,0
TURKSAT 5B,2021-126A,2026-06-26T05:54:34.667712,1.00268047,.0003358,0.0679,342.1014,19.8496,43.0524,0,U,50212,999,1638,0,.157E-5,0
INMARSAT 6-F1,2021-128A,2026-06-26T19:47:46.785984,1.00271763,.00003251,0.0177,331.9548,145.5284,178.1652,0,U,50319,999,1635,0,-.16E-5,0
SHIYAN-12 01 (SY-12 01),2021-129A,2026-06-26T16:13:25.268160,1.00043795,.000318,3.6986,79.7881,294.2392,196.3577,0,U,50321,999,1659,0,.132E-5,0
SHIYAN-12 02 (SY-12 02),2021-129B,2026-06-26T17:25:38.477856,1.00487205,.0003081,3.6982,79.7912,56.6569,136.1595,0,U,50322,999,1659,0,-.304E-5,0
TJS-9,2021-135A,2026-06-26T21:45:34.230816,1.00271765,.00038582,0.0316,204.9564,214.2003,319.4974,0,U,50574,999,1652,0,-.287E-5,0
USA 324,2022-006A,2026-06-06T02:06:38.886912,1.00289779,.000284,0.7690,83.2777,165.6787,110.1567,0,U,51280,999,1602,0,-.58E-6,0
GOES 18,2022-021A,2026-06-26T22:09:54.397728,1.00273321,.00006468,0.0075,87.6581,38.4096,344.4465,0,U,51850,999,669,0,.108E-5,0
ZHONGXING-6D,2022-038A,2026-06-26T21:19:46.467264,1.00274580,.00002368,0.0084,51.9368,142.0287,166.0300,0,U,52255,999,1551,0,-.342E-5,0
NILESAT 301,2022-061A,2026-06-26T22:47:07.310688,1.00272801,.00048851,0.0447,353.3594,66.8130,189.6723,0,U,52817,999,1483,0,-.46E-6,0
CMS-02 (GSAT-24),2022-067A,2026-06-26T21:30:13.203360,1.00271627,.00016273,0.0380,253.2448,127.1251,300.2122,0,U,52903,999,1470,0,-.153E-5,0
MEASAT 3D,2022-067B,2026-06-26T21:32:35.474784,1.00272077,.00007686,0.0432,311.2499,102.1958,276.2286,0,U,52904,999,1474,0,-.23E-5,0
SES-22,2022-071A,2026-06-26T17:01:29.468640,1.00270363,.00013228,0.0122,313.3627,129.3858,308.4500,0,U,52933,999,761,0,.116E-5,0
WFOV (USA 332),2022-073A,2026-06-26T18:15:06.681600,1.00270865,.00017585,3.7351,78.4130,261.7110,327.8097,0,U,52940,999,1446,0,-.354E-5,0
TIANLIAN 2-03,2022-078A,2026-06-26T19:26:51.954720,1.00271245,.00010938,0.6951,77.2105,338.9154,161.0745,0,U,53100,999,1464,0,.82E-6,0
SBIRS GEO-6 (USA 336),2022-092A,2026-06-26T23:28:44.389056,1.00271850,.00021852,3.2410,317.6545,130.8635,317.7668,0,U,53355,999,1433,0,-.277E-5,0
EUTELSAT KONNECT VHTS,2022-110A,2026-06-25T22:52:39.953280,1.00257067,.00025206,0.0630,100.1875,5.5045,154.2631,0,U,53765,999,692,0,.25E-6,0
ZHONGXING-1E,2022-112A,2026-06-26T21:29:43.251072,1.00272065,.00002298,0.0087,130.1528,202.1442,346.5657,0,U,53813,999,1394,0,-.138E-5,0
SES-20,2022-123A,2026-06-24T04:44:33.408960,1.00269292,.00020535,0.0251,65.9784,31.5385,142.8634,0,U,53960,999,1360,0,-.93E-6,0
SES-21,2022-123B,2026-06-23T10:21:26.129952,1.00271938,.00010078,0.0387,19.7009,64.8583,211.4828,0,U,53961,999,727,0,0,0
GALAXY 33 (G-33),2022-128A,2026-06-26T17:03:15.823584,1.00271514,.00020578,0.0120,12.4122,77.3931,307.8406,0,U,54026,999,1383,0,.9E-6,0
